{"spkid": "54051415", "covariance": {"data": [["1.539156181826291E-14", "-4.169651715744125E-14", "4.074659861973974E-12", "-1.011191486869883E-12", "2.657828682717399E-12", "-2.358337715272575E-12"], ["-4.169651715744125E-14", "1.133909938377379E-13", "-1.112424789372639E-11", "2.743563178610621E-12", "-7.277579502755943E-12", "6.37470425993685E-12"], ["4.074659861973974E-12", "-1.112424789372639E-11", "1.822195997289879E-9", "-4.035591705622927E-10", "9.738831173938978E-10", "-9.275074571465677E-10"], ["-1.011191486869883E-12", "2.743563178610621E-12", "-4.035591705622927E-10", "4.41551925646758E-10", "-3.295823568862302E-10", "1.256664831880468E-9"], ["2.657828682717399E-12", "-7.277579502755943E-12", "9.738831173938978E-10", "-3.295823568862302E-10", "6.669361019733604E-10", "-8.414652215428429E-10"], ["-2.358337715272575E-12", "6.37470425993685E-12", "-9.275074571465677E-10", "1.256664831880468E-9", "-8.414652215428429E-10", "4.724536670182252E-9"]], "elements": [{"label": "e", "title": "eccentricity", "value": ".652165636032664", "units": null, "sigma": 1.24062733398321e-07, "name": "e"}, {"units": "au", "title": "perihelion distance", "value": ".9485667799618214", "name": "q", "sigma": 3.36735792332413e-07, "label": "q"}, {"units": "TDB", "value": "2459080.730022284692", "title": "time of perihelion passage", "name": "tp", "sigma": 4.26871877416383e-05, "label": "tp"}, {"sigma": 2.10131369777755e-05, "name": "om", "value": "249.0587704837312", "title": "longitude of the ascending node", "units": "deg", "label": "node"}, {"units": "deg", "title": "argument of perihelion", "value": "145.3458849718586", "sigma": 2.58251060399248e-05, "name": "w", "label": "peri"}, {"label": "i", "units": "deg", "value": "73.62519725526481", "title": "inclination", "sigma": 6.87352651132026e-05, "name": "i"}], "labels": ["e", "q", "tp", "node", "peri", "i"], "epoch": "2458720.5"}, "elements": [{"label": "e", "name": "e", "sigma": "1.2449E-7", "value": ".6517054185265193", "title": "eccentricity", "units": null}, {"label": "a", "sigma": "5.9972E-8", "name": "a", "value": "2.72394892390236", "title": "semi-major axis", "units": "au"}, {"sigma": "3.3766E-7", "name": "q", "title": "perihelion distance", "value": ".9487366504057105", "units": "au", "label": "q"}, {"sigma": "6.8744E-5", "name": "i", "units": "deg", "title": "inclination; angle with respect to x-y ecliptic plane", "value": "73.64109032677609", "label": "i"}, {"label": "node", "sigma": "2.1051E-5", "name": "om", "title": "longitude of the ascending node", "value": "249.0075869805315", "units": "deg"}, {"name": "w", "sigma": "2.5886E-5", "value": "145.3957726474187", "title": "argument of perihelion", "units": "deg", "label": "peri"}, {"units": "deg", "title": "mean anomaly", "value": "104.4181078293207", "sigma": "1.8E-5", "name": "ma", "label": "M"}, {"name": "tp", "sigma": "6.9283E-5", "units": "TDB", "value": "2460724.211401819499", "title": "time of perihelion passage", "label": "tp"}, {"sigma": "5.423E-5", "name": "per", "title": "sidereal orbital period", "value": "1642.089661548467", "units": "d", "label": "period"}, {"units": "deg/d", "value": ".2192328521577349", "title": "mean motion", "name": "n", "sigma": "7.2402E-9", "label": "n"}, {"units": "au", "value": "4.49916119739901", "title": "aphelion distance", "name": "ad", "sigma": "9.9057E-8", "label": "Q"}], "epoch": "2461200.5"}